{"type":"FeatureCollection","features":[{"type":"Feature","geometry":{"type":"Point","coordinates":[105.64501748556016,34.53776715130479]},"properties":{"地名":"平峪沟","项目段":"藉河城区段","项目类":"主要建设堤防、护岸及排洪渠，提升防洪能力。"}},{"type":"Feature","geometry":{"type":"Point","coordinates":[105.76832660235945,34.583095084867004]},"properties":{"地名":"水家沟口","项目段":"天润桥至团庄桥及水家沟口至藉河入渭口段","项目类":"涵盖河道清淤、护坡修复、生态湿地建设等内容。"}},{"type":"Feature","geometry":{"type":"Point","coordinates":[105.65348079060915,34.574782648725495]},"properties":{"地名":"平峪沟汇入口","项目段":"平峪沟汇入口至九峪沟汇入口段","项目类":"重点开展生态修复、水土保持和防洪设施建设。"}},{"type":"Feature","geometry":{"type":"Point","coordinates":[105.68849133712317,34.57826508905173]},"properties":{"地名":"桥一沟","项目段":"平峪沟汇入口至九峪沟汇入口段、藉河城区段","项目类":"重点开展生态修复、水土保持和防洪设施建设。"}},{"type":"Feature","geometry":{"type":"Point","coordinates":[105.68253911541706,34.57747034907578]},"properties":{"地名":"桥二沟","项目段":"平峪沟汇入口至九峪沟汇入口段","项目类":"重点开展生态修复、水土保持和防洪设施建设。"}},{"type":"Feature","geometry":{"type":"Point","coordinates":[105.80777817883491,34.57439281369737]},"properties":{"地名":"罗家沟","项目段":"平峪沟汇入口至九峪沟汇入口段","项目类":"重点开展生态修复、水土保持和防洪设施建设。"}},{"type":"Feature","geometry":{"type":"Point","coordinates":[105.72519878633909,34.576554256588544]},"properties":{"地名":"团庄桥","项目段":"天润桥至团庄桥及水家沟口至藉河入渭口段","项目类":"涵盖河道清淤、护坡修复、生态湿地建设等内容。"}},{"type":"Feature","geometry":{"type":"Point","coordinates":[105.6521235757947,34.57470335318747]},"properties":{"地名":"天润桥","项目段":"天润桥至团庄桥及水家沟口至藉河入渭口段","项目类":"涵盖河道清淤、护坡修复、生态湿地建设等内容。"}},{"type":"Feature","geometry":{"type":"Point","coordinates":[105.66353066426744,34.62140589095486]},"properties":{"地名":"罗玉沟","项目段":"藉河城区段","项目类":"主要建设堤防、护岸及排洪渠，提升防洪能力。"}},{"type":"Feature","geometry":{"type":"Point","coordinates":[105.75947162987202,34.56129106390035]},"properties":{"地名":"水家沟","项目段":"平峪沟汇入口至九峪沟汇入口段、藉河城区段","项目类":"重点开展生态修复、水土保持和防洪设施建设。"}},{"type":"Feature","geometry":{"type":"Point","coordinates":[105.6756870403766,34.55255992917209]},"properties":{"地名":"南沟河","项目段":"平峪沟汇入口至九峪沟汇入口段","项目类":"重点开展生态修复、水土保持和防洪设施建设。"}}],"fileName":"藉河流域点数据"}