{"type":"FeatureCollection","features":[{"type":"Feature","geometry":{"bbox":[105.63087747481745,34.490679923757,105.9498172203028,34.62623167745386],"type":"Polygon","coordinates":[[[105.65202289602826,34.62513117673859],[105.65339108610648,34.624774257587774],[105.65440235703409,34.6250122036883],[105.65574080384988,34.624685027799956],[105.65725771024091,34.624447081699486],[105.65803103506789,34.624387595174255],[105.65960742798434,34.62441733843684],[105.66162996983924,34.62373324339774],[105.66243303792857,34.622305566794125],[105.6637119982193,34.62191890438078],[105.66573454007437,34.62138352565432],[105.66748939256615,34.620580457564984],[105.66814374434267,34.620639944090044],[105.66992834009704,34.620491227777336],[105.67126678691278,34.62016405188899],[105.67391393728172,34.61983687600065],[105.67528212736016,34.61846868592227],[105.67700723658947,34.61617845470426],[105.6777805614164,34.61546461640239],[105.67911900823202,34.61484000788829],[105.680100535897,34.614364115687295],[105.6817066720759,34.61448308873753],[105.68295588910406,34.61397745327372],[105.6842645926572,34.61350156107255],[105.68631687777469,34.61290669582127],[105.68783378416595,34.612787722770804],[105.68932094729462,34.61231183056964],[105.69018350190919,34.61165747879312],[105.69080811042323,34.61094364049143],[105.69190861113852,34.61079492417855],[105.69381217994317,34.61079492417855],[105.69547780264725,34.61005134261421],[105.69672701967522,34.6099621128264],[105.69839264237936,34.60936724757494],[105.69958237288228,34.60838571991013],[105.70193209062546,34.607225732669804],[105.70472795730728,34.6060062589043],[105.70764279703936,34.6030616759096],[105.7088622708049,34.60178271561887],[105.71023046088328,34.600444268803074],[105.71085506939733,34.599551970925916],[105.712401719051,34.598927362411985],[105.71350221976627,34.59839198368559],[105.71388888217984,34.59744019928337],[105.71406734175514,34.597053536869794],[105.71484066658206,34.59642892835575],[105.71623859992309,34.59568534679141],[105.71603039708498,34.594733562389195],[105.71662526233644,34.59342485883582],[105.72017388142194,34.5908461179709],[105.72399291633639,34.58813353242431],[105.72599166358128,34.58756246178291],[105.73088145594818,34.58692000731122],[105.73470049086262,34.586206169009536],[105.73612816746606,34.58542094687755],[105.73727030874875,34.5841360379344],[105.73762722789974,34.58281543707625],[105.73787707130522,34.58135206855758],[105.73816260662598,34.57817548811482],[105.73869798535237,34.57721180640743],[105.74098226791796,34.57596258937946],[105.74408746453054,34.57528444299277],[105.747121277313,34.575177367247534],[105.74994093860482,34.57567705405876],[105.75311751904763,34.57703334683197],[105.75511626629248,34.57849671535058],[105.75807869524478,34.580281311104955],[105.75943498801814,34.5815305281331],[105.76118389185751,34.582958204736485],[105.76453298322316,34.58484690190994],[105.76749541217544,34.58441859892895],[105.77045784112772,34.583276457646036],[105.77474087093816,34.58192016487283],[105.77895251691842,34.58009987720328],[105.78170079438019,34.57935034698653],[105.78566259695492,34.57881496826013],[105.79262252039695,34.57774421080745],[105.79840461064106,34.576423609949245],[105.80125996384805,34.575781155477785],[105.80361563024388,34.575745463562555],[105.80732758941292,34.576138074628545],[105.81143215964806,34.577101756335935],[105.81724994180719,34.57785128655286],[105.82199696651384,34.57735159974146],[105.82606584483398,34.57556700398709],[105.83009903123877,34.573104261846034],[105.83145532401215,34.57196212056334],[105.83580973765282,34.56874984820553],[105.83855801511459,34.56757201500761],[105.84119921683094,34.567000944366214],[105.84744530197128,34.566679717130455],[105.85961624501613,34.566144338404],[105.86643340079786,34.566108646489],[105.86671893611846,34.56646556563993],[105.86611217356193,34.568607080545064],[105.86575525441117,34.57057013587496],[105.86896752676898,34.57060582778996],[105.8704308952876,34.568321545224364],[105.87162776417358,34.567679090752904],[105.8751493664621,34.5674506624963],[105.87853771893447,34.56674634203853],[105.88481949598997,34.56535673681117],[105.89361398386751,34.56356738213486],[105.8979921921182,34.562234883971485],[105.90341736321153,34.560331315166884],[105.90749100045343,34.5591130311318],[105.91527659686462,34.557818604344675],[105.91692117189717,34.55784288030031],[105.92120420170767,34.5578131370379],[105.92477339321641,34.557515704412026],[105.92801540883683,34.55718852852385],[105.93247689822272,34.55680186611028],[105.93765222591054,34.556147514333816],[105.9425896074975,34.555136243406196],[105.94568290680509,34.55460086467991],[105.94755673234727,34.55424394552915],[105.94966850398998,34.5540357426911],[105.9498172203028,34.55028809160689],[105.948895179163,34.54999065898113],[105.94693212383318,34.55103167317117],[105.94487983871568,34.55156705189745],[105.93848503726252,34.55237011998696],[105.93214972233437,34.552994728501005],[105.92881847692632,34.55302447176365],[105.92444621732807,34.553143444813884],[105.92165035064625,34.553143444813884],[105.91897345701466,34.55323267460153],[105.91653450948365,34.55347062070223],[105.91545185472614,34.553909631257795],[105.91537177530483,34.55408760948745],[105.914196321568,34.554336263162725],[105.91131122509836,34.55487164188895],[105.90696870876269,34.55567470997846],[105.90354823356677,34.5564182915428],[105.90063339383471,34.55760802204571],[105.89640985054928,34.55924390148721],[105.89191861790079,34.560344402202304],[105.8862079114867,34.56153413270522],[105.87942644762019,34.56296180930883],[105.87639263483783,34.56349718803506],[105.87389420078154,34.56349718803506],[105.86791580500454,34.563854107186046],[105.86184817943956,34.56400282349887],[105.85652413543903,34.56421102633681],[105.85125957796356,34.56447871570009],[105.84495400629822,34.56468691853797],[105.84189045025312,34.56483563485085],[105.83903509704624,34.56537101357708],[105.835594991297,34.566508395938],[105.83299661987854,34.56786468871138],[105.82969868692442,34.57046306012967],[105.82722880640051,34.572376146778424],[105.8254013803479,34.57390376074409],[105.82320275837861,34.57503162526086],[105.82127539496379,34.57565980296647],[105.81817733673427,34.57593106152109],[105.81592160770066,34.57567407973255],[105.81252373738438,34.57504590202694],[105.80812649344563,34.57414646576672],[105.80839775200025,34.5717051387748],[105.80865473378879,34.57017752480897],[105.80909731353586,34.56790751900945],[105.80899737617369,34.567307894835835],[105.80865473378879,34.56583738793438],[105.80809793991347,34.56479518401386],[105.80778385106072,34.564081345712],[105.80775529752856,34.562939204429256],[105.80781240459271,34.56185417021055],[105.80726988748349,34.561254546037105],[105.80657604721267,34.56049835878298],[105.8060763604015,34.55842822770785],[105.80560046820045,34.55702434571447],[105.80562426281045,34.55569184755109],[105.80576703047075,34.55431176016771],[105.8056956466407,34.552598548243566],[105.80560046820045,34.55131363930036],[105.80555287898022,34.55019529262768],[105.80598118196122,34.54929109744552],[105.80652845799267,34.54800618850237],[105.80667122565296,34.54753029630115],[105.8066236364329,34.54600744125747],[105.80640948494244,34.545079451465085],[105.80619533345191,34.54417525628287],[105.8063381011122,34.54353280181141],[105.80602877118145,34.54360418564147],[105.80581461969098,34.5442466401131],[105.80602877118145,34.54522221912555],[105.80612394962168,34.547173377150216],[105.80605256579145,34.54819654538284],[105.80519595982946,34.549814578866744],[105.80505319216905,34.550480827948434],[105.80510078138923,34.552217834482576],[105.80493421911876,34.55435934938788],[105.80483904067853,34.55616773975231],[105.8051483706093,34.5574050594754],[105.80571944125069,34.55949898516053],[105.80624292267197,34.56080768871368],[105.80687013803441,34.56138303693149],[105.8072270571854,34.56233958025564],[105.80716995012125,34.56345316800656],[105.80732699454758,34.56440971133077],[105.80826926110586,34.56620858385122],[105.80818360050978,34.566950975685074],[105.8083406449361,34.56757915339068],[105.80836919846809,34.56880695526968],[105.80796944901925,34.570377399533356],[105.80778385106072,34.57186218320112],[105.80744465011855,34.57396948878824],[105.80497383777221,34.57359719643358],[105.80270383197251,34.573425875241185],[105.80140464626345,34.573425875241185],[105.79966288080715,34.573697133795804],[105.79779471752585,34.5740647014203],[105.79463479331002,34.57495937875842],[105.7916490456401,34.57567099622986],[105.7880513005992,34.57626110255933],[105.78471053734705,34.57674651260447],[105.78126507781053,34.577203369117626],[105.7792948840978,34.57757456503464],[105.77633483460642,34.5787071884734],[105.77289889291404,34.580191972140994],[105.77140459140236,34.58095339966292],[105.76794961402186,34.58234062542914],[105.7666706537313,34.57871194739539],[105.76649219415583,34.57683812185321],[105.76601630195466,34.57454789063519],[105.76518349060268,34.5738935388585],[105.76503477428982,34.57252534878029],[105.76464811187628,34.57029460408717],[105.76408298988741,34.56806385939416],[105.76235788065827,34.56660643952813],[105.76095994731725,34.56407826220948],[105.76075174447938,34.56238289624292],[105.76054354164125,34.56047932743826],[105.76107892036754,34.55863524515871],[105.76164404235652,34.55661270330364],[105.7606327714289,34.55527425648802],[105.76039482532843,34.552775822431784],[105.76101943384248,34.55185378129199],[105.76128712320559,34.55096148341494],[105.76084097426701,34.55048559121377],[105.75979996007698,34.549890725962314],[105.7596191210406,34.55030832136873],[105.7599807991133,34.551069748890654],[105.75944779984815,34.552059604668955],[105.75956201397645,34.55323981732795],[105.75960008535253,34.55457231549116],[105.75994272773738,34.55567638539793],[105.76003790617762,34.55761802557868],[105.75952394260037,34.558950523742],[105.75908612177523,34.56070180704228],[105.75918130021546,34.56167262713251],[105.75927647865569,34.56251019740665],[105.75899094333501,34.56422340933079],[105.75944779984815,34.56475640859617],[105.76150841307913,34.56654199579265],[105.76187960899615,34.567155896732174],[105.76197954635836,34.56795539563018],[105.76197954635836,34.56844080567532],[105.76215086755082,34.56898332278456],[105.76242212610543,34.56995414287502],[105.7627504917242,34.570839302369166],[105.76309313410911,34.57208138101407],[105.76364992798443,34.57303792433845],[105.7642209986259,34.57380886970452],[105.76499194399173,34.57515088571165],[105.76539169344056,34.576293026994506],[105.76570197515593,34.57728716580277],[105.76594468017856,34.57810094146669],[105.76636822423745,34.579314466579774],[105.76668231309031,34.58050419708269],[105.76735966632322,34.58262746945343],[105.76621752504047,34.582877312859125],[105.76386185864465,34.58230624221767],[105.76271971736196,34.58134256051028],[105.76036405096613,34.57973642433137],[105.75605246762353,34.57625527287985],[105.75264507946328,34.57427556132302],[105.74887601322996,34.57339991967297],[105.74596355295876,34.57296209884788],[105.74333662800831,34.57324763416858],[105.74046223911324,34.57382822265396],[105.73532260334059,34.57596973755909],[105.7300349527269,34.57702889360803],[105.7286110416685,34.57693909741516],[105.72600695207495,34.576605568698824],[105.72522444239422,34.57631052406515],[105.72403758682469,34.57600501596511],[105.72106326056723,34.5749342585126],[105.71612587898028,34.57362555495928],[105.710355686041,34.57201941878037],[105.70668100509442,34.571162812818216],[105.70414925858421,34.57129606263453],[105.69963780051717,34.57236206116522],[105.69562127033942,34.57356130951223],[105.69310855951721,34.57424659428182],[105.68842578025777,34.57474152217105],[105.6838572151266,34.57394202327305],[105.68300060916442,34.572285918413],[105.68174425375344,34.56737471089696],[105.68191557494583,34.562920359894065],[105.68237243145882,34.561207147969924],[105.68345746567758,34.55932261485316],[105.68357167980588,34.557152546415864],[105.68254375265127,34.554125872016584],[105.68231532439466,34.55241266009227],[105.68260085971542,34.54950019982107],[105.68174425375327,34.54727302431962],[105.68174425375327,34.54504584881818],[105.68157293256098,34.5435039580865],[105.68185846788151,34.542761566252636],[105.68225821733053,34.539906213045754],[105.68260085971542,34.53819300112144],[105.68237243145882,34.53602293268415],[105.68340035861343,34.533967078375106],[105.68311482329273,34.53231097351511],[105.68334325154927,34.53025511920612],[105.68322903742099,34.52757108719152],[105.68254375265127,34.52648605297276],[105.68271507384367,34.52408755627886],[105.68437117870371,34.51974741940427],[105.68602728356387,34.51649231674821],[105.68756917429562,34.513808284733614],[105.68814024493703,34.51135268097579],[105.68985345686116,34.509468147859025],[105.69059584869507,34.50729807942173],[105.69185220410606,34.50524222511274],[105.69373673722282,34.502101336584985],[105.69607812685234,34.499702839891256],[105.6963636621731,34.498446484480105],[105.69784844584086,34.49610509485035],[105.70007562134231,34.492849992194294],[105.69899058712355,34.49210760036061],[105.69807687409741,34.490679923757],[105.6963636621731,34.491193887334305],[105.69332984939075,34.493316366551596],[105.69225909193813,34.494981989255514],[105.69148576711115,34.496588125434585],[105.68982014440707,34.49819426161349],[105.6878570890774,34.501406533971306],[105.68708376425047,34.50438086022859],[105.68553711459657,34.50491623895499],[105.68428789756867,34.5062844290332],[105.68351457274174,34.509556187916246],[105.68315765359074,34.51074591841916],[105.68220586918852,34.511519243246084],[105.68006435428322,34.51348229857592],[105.6792910294563,34.51609970568228],[105.67792283937791,34.517348922710426],[105.67827975852884,34.51836019363782],[105.6772684876014,34.52014478939219],[105.67756592022715,34.521037087269406],[105.67845821810431,34.521988871671795],[105.67669741695994,34.52611327074845],[105.676316703199,34.528207196433755],[105.67584081099778,34.53115772808087],[105.67431795595411,34.53306129688565],[105.67412759907364,34.53448897348909],[105.67479384815533,34.53686843449492],[105.67479384815533,34.53934307394099],[105.67317581467142,34.542008070267514],[105.67429416134411,34.54403061212241],[105.67304494431596,34.548908507184365],[105.67417518829387,34.55170437386613],[105.67358032304242,34.553667429196025],[105.67542440532179,34.560032487386536],[105.67738746065169,34.56282835406853],[105.67905308335577,34.565148328549185],[105.6797904684069,34.56925661669209],[105.68008790103283,34.571160185496694],[105.67996892798243,34.57264734862537],[105.67562641164693,34.57211196989914],[105.67220593645101,34.57190376706103],[105.66536498605927,34.57237965926225],[105.6640562825059,34.572230942949375],[105.66139723483195,34.5727890217338],[105.6590558452022,34.57320304794871],[105.65762816859883,34.573502860035546],[105.65544382339539,34.574059653910865],[105.65464432449738,34.57420718049315],[105.65407325385593,34.57199904067972],[105.65388289697563,34.570066918342945],[105.6533784512423,34.56874393802366],[105.65303580885741,34.5674209577046],[105.65275979138079,34.565936174036835],[105.6522077564274,34.56475596137807],[105.65170331069424,34.563632855783226],[105.65101802592449,34.56260492862879],[105.6501614199625,34.560939305924705],[105.64966093999749,34.56062640680244],[105.64891735843315,34.55934744651171],[105.64808454708123,34.557057215293696],[105.6479060875057,34.55524287627668],[105.64799531729335,34.55369622662283],[105.6474004520419,34.5510193329913],[105.64769788466765,34.55024600816438],[105.64743019530454,34.54938345354975],[105.64722199246643,34.548461412410006],[105.6474004520419,34.5477773173709],[105.64716250594142,34.54676604644345],[105.64701378962855,34.54405940954928],[105.64674610026543,34.54325634145971],[105.64618097827656,34.54209635421944],[105.64585380238822,34.54150148896798],[105.64566820442974,34.54016661134369],[105.6454683297053,34.53950988010615],[105.64519707115069,34.538638997377916],[105.6452970085129,34.53775383788377],[105.64523990144875,34.5359692421294],[105.64515424085243,34.534441628163734],[105.6447544914036,34.53407043224672],[105.64469738433945,34.532814076835734],[105.64406920663384,34.531500614360425],[105.644126313698,34.52961608124383],[105.64286995828684,34.527388905742384],[105.64229888764555,34.52556147968994],[105.64087121104194,34.523048768867795],[105.64064278278539,34.52213505584149],[105.64001460507978,34.52042184391729],[105.63995749801563,34.51979366621174],[105.64012881920826,34.51842309667245],[105.6396719626951,34.51750938364614],[105.63892957086125,34.516195921171004],[105.63710214480881,34.51436849511856],[105.6357886823335,34.5132834608998],[105.63447521985836,34.51162735603981],[105.63344729270375,34.5101996794362],[105.63276200793405,34.50877200283281],[105.63099168894576,34.509457287602515],[105.63087747481745,34.51008546530795],[105.63142659882311,34.51055116667146],[105.63290186464673,34.51188366483461],[105.63392503287935,34.51383482285946],[105.63509096877209,34.51552424017359],[105.63649485076564,34.51718986287773],[105.63742284055786,34.51876030714158],[105.63782734892887,34.51997383225455],[105.63823185729984,34.52028316218525],[105.63868395489101,34.521068384317175],[105.63849359801054,34.521734633398864],[105.63920743631223,34.523543023763295],[105.64049234525538,34.525874895548895],[105.64075408596591,34.52704083144181],[105.64053993447544,34.52808779428443],[105.64130136199736,34.529610649328106],[105.64196761107905,34.53106212054172],[105.64199140568905,34.53234702948487],[105.64239591406006,34.533965062968775],[105.64268144938075,34.534964436591224],[105.64332390385226,34.53655867546513],[105.64315734158198,34.53760563830775],[105.64313354697175,34.538723984980436],[105.6432763146322,34.540675143005274],[105.64382359066343,34.54253112258971],[105.64437086669489,34.54405397763355],[105.64475158045582,34.5447916105453],[105.64517988343681,34.545457859626936],[105.64487055350611,34.546171697928685],[105.64501332116635,34.547147276941075],[105.64508470499658,34.548099061343294],[105.64477537506588,34.548955667305506],[105.64418050981442,34.54878910503504],[105.64389497449368,34.54983606787766],[105.6437046176132,34.550811646890054],[105.64410912598419,34.55100200377058],[105.64427568825465,34.55164445824204],[105.64349046612273,34.551906198952736],[105.64379979605343,34.55269142108472],[105.6439663583239,34.55390494619763],[105.64439466130489,34.55423807073839],[105.64482296428605,34.55440463300886],[105.64496573194634,34.55492811443008],[105.64477537506588,34.55554677429171],[105.64510849960664,34.556593737134165],[105.6457033648581,34.55690306706492],[105.64639340854978,34.558973198139995],[105.64658376543025,34.561067123825296],[105.64713104146165,34.56225685432821],[105.64796385281363,34.56380350398189],[105.6486776911154,34.565088412925036],[105.64929635097701,34.56627814342795],[105.64955809168754,34.56692059789964],[105.65091438446092,34.5672537224404],[105.65131889283191,34.57096568160944],[105.65153304432238,34.572869250414215],[105.65020054615923,34.57267889353375],[105.65003398388876,34.57403518630696],[105.65158063354261,34.574939381489116],[105.65327005085675,34.57605772816203],[105.65514982505135,34.576652593413485],[105.65774343754765,34.57658120958325],[105.66250235955931,34.57567701440104],[105.66473905290474,34.57474902460882],[105.66807029831295,34.574177953967364],[105.67244850656363,34.57408277552713],[105.67373341550677,34.57432072162766],[105.67704086630482,34.57434451623766],[105.68356058946085,34.57539147908034],[105.68348920563079,34.576271879652495],[105.68317987569992,34.57643844192296],[105.68308469725963,34.57686674490395],[105.68237085895794,34.576890539513954],[105.68210911824741,34.57753299398564],[105.68158563682601,34.57896067058908],[105.6802293440528,34.579603125060714],[105.68030072788287,34.57981727655124],[105.6803959063231,34.580007633431705],[105.68099077157457,34.57969830350078],[105.68187117214671,34.57924620590978],[105.68239465356794,34.57817544845711],[105.68313228647986,34.57731884249495],[105.68337023258039,34.57710469100448],[105.68334643797039,34.57667638802349],[105.68384612478155,34.576605004193254],[105.68394130322184,34.57543906830051],[105.68603998782908,34.57567463493996],[105.68928081371888,34.57603155409089],[105.68956634903958,34.57677394592463],[105.68771036945515,34.576545517668194],[105.68739628060229,34.57681677622287],[105.68723923617591,34.57783042661117],[105.6887240198435,34.57848715784894],[105.6887240198435,34.5787298628714],[105.68943785814537,34.57911533555432],[105.68933792078298,34.5799005576863],[105.68918087635666,34.58014326270893],[105.68932364401712,34.580314583901384],[105.6897662237642,34.58022892330524],[105.6897662237642,34.57987200415431],[105.68978970111279,34.57891133643096],[105.68906634496693,34.5784354442298],[105.68892833622863,34.57815466783103],[105.68757204345525,34.57758359718957],[105.68776240033571,34.577036321158346],[105.68821449792694,34.57689355349788],[105.68961837992032,34.57713149959858],[105.69009427212154,34.577036321158346],[105.68976114758061,34.57610833136596],[105.69195025170598,34.5760369475359],[105.69506734562368,34.5757514122152],[105.6978751096105,34.57506136852345],[105.70165845260976,34.573966816460825],[105.70527523333874,34.573252978159076],[105.70725018597358,34.573229183548904],[105.70879683562725,34.57356230808983],[105.71131906429355,34.57449029788205],[105.71417441750054,34.57525172540397],[105.71793396588959,34.576013152925725],[105.72243114719072,34.57734565108905],[105.72528650039777,34.57841640854173],[105.72802288055436,34.57879712230249],[105.73056890383066,34.57891609535295],[105.7322345265348,34.578678149252255],[105.73654135095524,34.57789292712033],[105.73696965393623,34.579344398333944],[105.736850680886,34.58124796713855],[105.73661273478547,34.583056357502926],[105.7361606371943,34.58419849878584],[105.73520885279208,34.58495992630776],[105.7341143007294,34.585768943049686],[105.73116376908212,34.58619724603068],[105.72749939913314,34.5866731382319],[105.72531029500777,34.58691108433243],[105.7232639585427,34.58781527951459],[105.72155074661858,34.58888603696727],[105.7190999017825,34.59045648123117],[105.71731530602813,34.59202692549502],[105.71662526233644,34.592812147626944],[105.71560209410399,34.593264245217995],[105.71412682828037,34.59488227870207],[105.7130263275651,34.59628021204287],[105.71144993464878,34.59744019928337],[105.70999251478275,34.59779711843413],[105.70984379846988,34.598481213473406],[105.70924893321842,34.59934376808798],[105.7077617700898,34.600295552490195],[105.70609614738567,34.60094990426688],[105.70508487645822,34.601633999305996],[105.70431155163129,34.60264527023361],[105.7036571998546,34.604191919887285],[105.70240798282668,34.60496524471421],[105.70133722537402,34.605411393652844],[105.69999877855821,34.60630369153],[105.69818443954125,34.60746367877033],[105.69681624946305,34.60835597664749],[105.6960726678987,34.608445206435306],[105.69506139697108,34.60880212558607],[105.69434755866939,34.609456477362755],[105.69342551752959,34.60963493693822],[105.69199784092615,34.60993236956381],[105.69021324517178,34.610170315664504],[105.68839890615482,34.610408261764974],[105.6868225132385,34.61109235680425],[105.6850676607466,34.611895424893646],[105.68316409194193,34.61216311425693],[105.68111180682445,34.61308515539656],[105.6788810621315,34.61397745327372],[105.67647185786308,34.61501846746382],[105.67462777558364,34.61650563059243],[105.67459803232106,34.61715998236912],[105.67340830181814,34.618111766771506],[105.67242677415311,34.6185281724475],[105.67162370606377,34.61849842918491],[105.67016628619768,34.618676888760376],[105.66858989328125,34.61933124053684],[105.66754887909123,34.619628673162595],[105.66647812163853,34.62010456536376],[105.66519916134797,34.62090763345333],[105.66403917410764,34.62096711997839],[105.66308738970525,34.62111583629121],[105.66201663225257,34.621472755442205],[105.66157048331416,34.62218659374389],[105.661094591113,34.62340606750939],[105.65981563082227,34.62385221644803],[105.65883410315742,34.623822473185385],[105.65746591307902,34.623673756872506],[105.6563059258387,34.623941446235676],[105.65514593859842,34.624179392336316],[105.6541644109334,34.62429836538661],[105.6530341669557,34.624268622123964],[105.65226084212878,34.624387595174255],[105.65163623361468,34.624685027799956],[105.6511900846761,34.62527989305141],[105.65044650311177,34.62551783915211],[105.64884036693286,34.626142447665984],[105.64910805629604,34.62623167745386],[105.65035727332412,34.62602347461575],[105.65157674708968,34.6256368122024],[105.65202289602826,34.62513117673859]]]},"properties":{"Id":0}}],"fileName":"藉河流域范围"}